COSMOS 2575             
1 58929U 24026A   26157.20275638  .00034277  00000+0  22719-3 0  9997
2 58929  96.6189  41.7266 0001684  85.4124 274.7336 15.75441059133902
STARLINK-31317          
1 58931U 24027A   26157.01968412 -.00004395  00000+0 -13647-3 0  9999
2 58931  53.1603 259.2284 0001033  91.2688 268.8431 15.30173693130698
STARLINK-31378          
1 58932U 24027B   26156.59216085  .00000755  00000+0  36094-4 0  9990
2 58932  53.1605 260.8260 0000985  71.1139 288.9969 15.31705338130794
STARLINK-31350          
1 58933U 24027C   26157.01334057  .00003695  00000+0  13690-3 0  9991
2 58933  53.1600 259.1850 0000622 119.3422 240.7641 15.30176896130854
STARLINK-31337          
1 58934U 24027D   26156.55297840  .00000460  00000+0  27662-4 0  9990
2 58934  53.1617 261.2940 0001210  82.9167 277.1972 15.30190070130785
STARLINK-31362          
1 58935U 24027E   26156.46984097 -.00000996  00000+0 -21533-4 0  9995
2 58935  53.1606 262.1947 0000983  96.0895 264.0217 15.30185570130765
STARLINK-31383          
1 58936U 24027F   26156.46878294 -.00000744  00000+0 -12998-4 0  9993
2 58936  53.1601 262.1888 0000943 118.4310 241.6786 15.30178906130769
STARLINK-31390          
1 58937U 24027G   26156.59518648 -.00001074  00000+0 -24163-4 0  9996
2 58937  53.1597 261.5527 0000994  98.3802 261.7311 15.30192767130785
STARLINK-31377          
1 58938U 24027H   26156.46772465  .00001029  00000+0  46885-4 0  9995
2 58938  53.1598 262.1841 0001052  88.2833 271.8289 15.30189771130766
STARLINK-31372          
1 58939U 24027J   26156.59202783 -.00000908  00000+0 -18528-4 0  9991
2 58939  53.1612 261.5329 0001313  72.9117 287.2028 15.30184824130781
STARLINK-31371          
1 58940U 24027K   26156.59096556  .00000286  00000+0  21768-4 0  9999
2 58940  53.1612 261.5288 0000988 124.6966 235.4129 15.30193035130782
STARLINK-31345          
1 58941U 24027L   26157.01227675  .00001042  00000+0  47279-4 0  9992
2 58941  53.1621 259.1793 0001354  96.8595 263.2560 15.30207616130850
STARLINK-31354          
1 58942U 24027M   26157.00003472 -.00000430  00000+0 -20956-5 0  9995
2 58942  53.1595 259.1806 0001484  77.0615 244.6996 15.31711980  5889
STARLINK-31346          
1 58943U 24027N   26156.75632946  .00007993  00000+0  27620-3 0  9993
2 58943  53.1584 258.3083 0001123  52.1756 307.9346 15.30845123130849
STARLINK-31336          
1 58944U 24027P   26156.46667288 -.00000512  00000+0 -51412-5 0  9999
2 58944  53.1605 262.1702 0001867  74.3002 285.8205 15.30190554130759
STARLINK-31359          
1 58945U 24027Q   26156.44704292  .00000322  00000+0  23012-4 0  9996
2 58945  53.1590 223.5630 0001067  88.2815 271.8308 15.30191808131317
STARLINK-31331          
1 58946U 24027R   26156.99299229 -.00000287  00000+0  25296-5 0  9994
2 58946  53.1593 259.0608 0001094  81.2775 278.8350 15.31710527130856
STARLINK-31116          
1 58947U 24027S   26156.99765717  .00002610  00000+0  95776-4 0  9995
2 58947  53.1618 259.0874 0001088 124.6629 235.4476 15.31719513130855
STARLINK-31311          
1 58948U 24027T   26156.62935501  .00001097  00000+0  49136-4 0  9993
2 58948  53.1604 258.9320 0000888 105.1646 254.9453 15.30214449130820
STARLINK-31294          
1 58949U 24027U   26156.99446529  .00002987  00000+0  11296-3 0  9995
2 58949  53.1601 259.7772 0001196  87.4618 272.6520 15.30192487130843
STARLINK-31330          
1 58951U 24027W   26156.99490247  .00000526  00000+0  26698-4 0  9994
2 58951  53.1626 255.5449 0001369  89.5364 270.5796 15.34400442130907
STARLINK-31293          
1 58952U 24027X   26156.48032989  .00001376  00000+0  56133-4 0  9995
2 58952  53.1586 261.5478 0001114  93.1796 266.9333 15.31679097130772
HBTSS-SV2               
1 58955U 24028A   26157.14821609  .00000030  00000+0  12082-3 0  9998
2 58955  39.9909  94.6129 0019519 178.9198 181.1594 13.70468523115557
RAPTOR4                 
1 58956U 24028B   26156.54432870 -.00000048  00000+0  32746-4 0  9990
2 58956  39.9900  97.9287 0014721 176.6841 183.4005 13.70382367115452
RAPTOR1                 
1 58957U 24028C   26157.08145149 -.00000044  00000+0  37124-4 0  9992
2 58957  39.9899  94.9503 0012079 192.3628 167.6824 13.70767959115536
RAPTOR3                 
1 58958U 24028D   26157.09782376 -.00000045  00000+0  36207-4 0  9995
2 58958  39.9908  94.3101 0011598 195.4343 164.6051 13.70486327115546
RAPTOR2                 
1 58959U 24028E   26157.13454267 -.00000041  00000+0  41447-4 0  9994
2 58959  39.9903  93.7364 0011795 197.6437 162.3901 13.70555693115556
HBTSS-SV1               
1 58960U 24028F   26156.37694881  .00002712  00000+0  25499-3 0  9993
2 58960  39.9872 187.2568 0009488 117.1609 243.0150 14.95205272105412
STARLINK-31373          
1 58965U 24031A   26156.97059797 -.00000027  00000+0  11226-4 0  9991
2 58965  53.1606 246.3362 0001181 116.4773 243.6349 15.30195319130059
STARLINK-31449          
1 58966U 24031B   26156.96849591  .00001347  00000+0  57611-4 0  9993
2 58966  53.1610 246.3247 0001313 104.4120 255.7026 15.30195693130058
