OBJECT_NAME,OBJECT_ID,EPOCH,MEAN_MOTION,ECCENTRICITY,INCLINATION,RA_OF_ASC_NODE,ARG_OF_PERICENTER,MEAN_ANOMALY,EPHEMERIS_TYPE,CLASSIFICATION_TYPE,NORAD_CAT_ID,ELEMENT_SET_NO,REV_AT_EPOCH,BSTAR,MEAN_MOTION_DOT,MEAN_MOTION_DDOT
COSMOS 2575,2024-026A,2026-06-06T04:51:58.151232,15.75441059,.0001684,96.6189,41.7266,85.4124,274.7336,0,U,58929,999,13390,.22719439E-3,.34277E-3,0
STARLINK-31317,2024-027A,2026-06-06T00:28:20.707968,15.30173693,.00010333,53.1603,259.2284,91.2688,268.8431,0,U,58931,999,13069,-.13646869E-3,-.4395E-4,0
STARLINK-31378,2024-027B,2026-06-05T14:12:42.697440,15.31705338,.00009856,53.1605,260.8260,71.1139,288.9969,0,U,58932,999,13079,.36093956E-4,.755E-5,0
STARLINK-31350,2024-027C,2026-06-06T00:19:12.625248,15.30176896,.00006224,53.1600,259.1850,119.3422,240.7641,0,U,58933,999,13085,.136904E-3,.3695E-4,0
STARLINK-31337,2024-027D,2026-06-05T13:16:17.333760,15.30190070,.00012104,53.1617,261.2940,82.9167,277.1972,0,U,58934,999,13078,.27661709E-4,.46E-5,0
STARLINK-31362,2024-027E,2026-06-05T11:16:34.259808,15.30185570,.0000983,53.1606,262.1947,96.0895,264.0217,0,U,58935,999,13076,-.21533293E-4,-.996E-5,0
STARLINK-31383,2024-027F,2026-06-05T11:15:02.846016,15.30178906,.00009438,53.1601,262.1888,118.4310,241.6786,0,U,58936,999,13076,-.1299817E-4,-.744E-5,0
STARLINK-31390,2024-027G,2026-06-05T14:17:04.111872,15.30192767,.00009949,53.1597,261.5527,98.3802,261.7311,0,U,58937,999,13078,-.24162913E-4,-.1074E-4,0
STARLINK-31377,2024-027H,2026-06-05T11:13:31.409760,15.30189771,.00010527,53.1598,262.1841,88.2833,271.8289,0,U,58938,999,13076,.46884967E-4,.1029E-4,0
STARLINK-31372,2024-027J,2026-06-05T14:12:31.204512,15.30184824,.00013139,53.1612,261.5329,72.9117,287.2028,0,U,58939,999,13078,-.18527655E-4,-.908E-5,0
STARLINK-31371,2024-027K,2026-06-05T14:10:59.424384,15.30193035,.00009888,53.1612,261.5288,124.6966,235.4129,0,U,58940,999,13078,.21767642E-4,.286E-5,0
STARLINK-31345,2024-027L,2026-06-06T00:17:40.711200,15.30207616,.00013547,53.1621,259.1793,96.8595,263.2560,0,U,58941,999,13085,.47278743E-4,.1042E-4,0
STARLINK-31354,2024-027M,2026-06-06T00:00:02.999808,15.31711980,.00014844,53.1595,259.1806,77.0615,244.6996,0,U,58942,999,588,-.2095623E-5,-.43E-5,0
STARLINK-31346,2024-027N,2026-06-05T18:09:06.865344,15.30845123,.00011239,53.1584,258.3083,52.1756,307.9346,0,U,58943,999,13084,.27619689E-3,.7993E-4,0
STARLINK-31336,2024-027P,2026-06-05T11:12:00.536832,15.30190554,.00018675,53.1605,262.1702,74.3002,285.8205,0,U,58944,999,13075,-.5141214E-5,-.512E-5,0
STARLINK-31359,2024-027Q,2026-06-05T10:43:44.508288,15.30191808,.00010671,53.1590,223.5630,88.2815,271.8308,0,U,58945,999,13131,.23011872E-4,.322E-5,0
STARLINK-31331,2024-027R,2026-06-05T23:49:54.533856,15.31710527,.00010949,53.1593,259.0608,81.2775,278.8350,0,U,58946,999,13085,.2529574E-5,-.287E-5,0
STARLINK-31116,2024-027S,2026-06-05T23:56:37.579488,15.31719513,.00010881,53.1618,259.0874,124.6629,235.4476,0,U,58947,999,13085,.95776321E-4,.261E-4,0
STARLINK-31311,2024-027T,2026-06-05T15:06:16.272864,15.30214449,.00008888,53.1604,258.9320,105.1646,254.9453,0,U,58948,999,13082,.49136377E-4,.1097E-4,0
STARLINK-31294,2024-027U,2026-06-05T23:52:01.801056,15.30192487,.00011966,53.1601,259.7772,87.4618,272.6520,0,U,58949,999,13084,.11295674E-3,.2987E-4,0
STARLINK-31330,2024-027W,2026-06-05T23:52:39.573408,15.34400442,.00013691,53.1626,255.5449,89.5364,270.5796,0,U,58951,999,13090,.26698178E-4,.526E-5,0
STARLINK-31293,2024-027X,2026-06-05T11:31:40.502496,15.31679097,.00011145,53.1586,261.5478,93.1796,266.9333,0,U,58952,999,13077,.5613293E-4,.1376E-4,0
HBTSS-SV2,2024-028A,2026-06-06T03:33:25.870176,13.70468523,.0019519,39.9909,94.6129,178.9198,181.1594,0,U,58955,999,11555,.12081935E-3,.3E-6,0
RAPTOR4,2024-028B,2026-06-05T13:03:49.999680,13.70382367,.00147216,39.9900,97.9287,176.6841,183.4005,0,U,58956,999,11545,.32745957E-4,-.48E-6,0
RAPTOR1,2024-028C,2026-06-06T01:57:17.408736,13.70767959,.00120799,39.9899,94.9503,192.3628,167.6824,0,U,58957,999,11553,.37123555E-4,-.44E-6,0
RAPTOR3,2024-028D,2026-06-06T02:20:51.972864,13.70486327,.00115989,39.9908,94.3101,195.4343,164.6051,0,U,58958,999,11554,.36206968E-4,-.45E-6,0
RAPTOR2,2024-028E,2026-06-06T03:13:44.486688,13.70555693,.00117954,39.9903,93.7364,197.6437,162.3901,0,U,58959,999,11555,.41447327E-4,-.41E-6,0
HBTSS-SV1,2024-028F,2026-06-05T09:02:48.377184,14.95205272,.00094882,39.9872,187.2568,117.1609,243.0150,0,U,58960,999,10541,.25499091E-3,.2712E-4,0
STARLINK-31373,2024-031A,2026-06-05T23:17:39.664608,15.30195319,.0001181,53.1606,246.3362,116.4773,243.6349,0,U,58965,999,13005,.11226078E-4,-.27E-6,0
STARLINK-31449,2024-031B,2026-06-05T23:14:38.046624,15.30195693,.0001313,53.1610,246.3247,104.4120,255.7026,0,U,58966,999,13005,.57610691E-4,.1347E-4,0
